CCSDS_OMM_VERS = 2.0
CREATION_DATE  = 
ORIGINATOR     = 

OBJECT_NAME    = STARLINK-34812
OBJECT_ID      = 2025-232X
CENTER_NAME    = EARTH
REF_FRAME      = TEME
TIME_SYSTEM    = UTC
MEAN_ELEMENT_THEORY = SGP/SGP4

EPOCH          = 2025-11-04T12:00:02.998944
MEAN_MOTION    = 15.50757953
ECCENTRICITY   = .0001421
INCLINATION    = 53.1590
RA_OF_ASC_NODE = 327.9186
ARG_OF_PERICENTER = 61.7029
MEAN_ANOMALY   = 277.5281

EPHEMERIS_TYPE = 0
CLASSIFICATION_TYPE = U
NORAD_CAT_ID   = 66026
ELEMENT_SET_NO = 999
REV_AT_EPOCH   = 334
BSTAR          = -.36294E-1
MEAN_MOTION_DOT = -.1909236E-1
MEAN_MOTION_DDOT = 0

CCSDS_OMM_VERS = 2.0
CREATION_DATE  = 
ORIGINATOR     = 

OBJECT_NAME    = STARLINK-35341
OBJECT_ID      = 2025-232Y
CENTER_NAME    = EARTH
REF_FRAME      = TEME
TIME_SYSTEM    = UTC
MEAN_ELEMENT_THEORY = SGP/SGP4

EPOCH          = 2025-11-04T12:00:02.998944
MEAN_MOTION    = 15.61097583
ECCENTRICITY   = .0001352
INCLINATION    = 53.1586
RA_OF_ASC_NODE = 327.7007
ARG_OF_PERICENTER = 59.1089
MEAN_ANOMALY   = 27.5130

EPHEMERIS_TYPE = 0
CLASSIFICATION_TYPE = U
NORAD_CAT_ID   = 66027
ELEMENT_SET_NO = 999
REV_AT_EPOCH   = 339
BSTAR          = -.25689E-1
MEAN_MOTION_DOT = -.194513E-1
MEAN_MOTION_DDOT = 0

CCSDS_OMM_VERS = 2.0
CREATION_DATE  = 
ORIGINATOR     = 

OBJECT_NAME    = STARLINK-35339
OBJECT_ID      = 2025-232Z
CENTER_NAME    = EARTH
REF_FRAME      = TEME
TIME_SYSTEM    = UTC
MEAN_ELEMENT_THEORY = SGP/SGP4

EPOCH          = 2025-11-04T12:00:02.998944
MEAN_MOTION    = 15.61102057
ECCENTRICITY   = .0001344
INCLINATION    = 53.1590
RA_OF_ASC_NODE = 327.6974
ARG_OF_PERICENTER = 61.6665
MEAN_ANOMALY   = 26.8682

EPHEMERIS_TYPE = 0
CLASSIFICATION_TYPE = U
NORAD_CAT_ID   = 66028
ELEMENT_SET_NO = 999
REV_AT_EPOCH   = 333
BSTAR          = -.25765E-1
MEAN_MOTION_DOT = -.1950486E-1
MEAN_MOTION_DDOT = 0

CCSDS_OMM_VERS = 2.0
CREATION_DATE  = 
ORIGINATOR     = 

OBJECT_NAME    = STARLINK-35399
OBJECT_ID      = 2025-232AA
CENTER_NAME    = EARTH
REF_FRAME      = TEME
TIME_SYSTEM    = UTC
MEAN_ELEMENT_THEORY = SGP/SGP4

EPOCH          = 2025-11-04T12:00:02.998944
MEAN_MOTION    = 15.61106438
ECCENTRICITY   = .0001378
INCLINATION    = 53.1593
RA_OF_ASC_NODE = 327.6941
ARG_OF_PERICENTER = 66.3371
MEAN_ANOMALY   = 24.1167

EPHEMERIS_TYPE = 0
CLASSIFICATION_TYPE = U
NORAD_CAT_ID   = 66029
ELEMENT_SET_NO = 999
REV_AT_EPOCH   = 333
BSTAR          = -.25925E-1
MEAN_MOTION_DOT = -.196149E-1
MEAN_MOTION_DDOT = 0

CCSDS_OMM_VERS = 2.0
CREATION_DATE  = 
ORIGINATOR     = 

OBJECT_NAME    = STARLINK-35431
OBJECT_ID      = 2025-232AB
CENTER_NAME    = EARTH
REF_FRAME      = TEME
TIME_SYSTEM    = UTC
MEAN_ELEMENT_THEORY = SGP/SGP4

EPOCH          = 2025-11-04T12:00:02.998944
MEAN_MOTION    = 15.61105516
ECCENTRICITY   = .0001547
INCLINATION    = 53.1591
RA_OF_ASC_NODE = 327.6889
ARG_OF_PERICENTER = 66.6810
MEAN_ANOMALY   = 25.6874

EPHEMERIS_TYPE = 0
CLASSIFICATION_TYPE = U
NORAD_CAT_ID   = 66030
ELEMENT_SET_NO = 999
REV_AT_EPOCH   = 333
BSTAR          = -.25874E-1
MEAN_MOTION_DOT = -.1958124E-1
MEAN_MOTION_DDOT = 0

CCSDS_OMM_VERS = 2.0
CREATION_DATE  = 
ORIGINATOR     = 

OBJECT_NAME    = STARLINK-35326
OBJECT_ID      = 2025-232AC
CENTER_NAME    = EARTH
REF_FRAME      = TEME
TIME_SYSTEM    = UTC
MEAN_ELEMENT_THEORY = SGP/SGP4

EPOCH          = 2025-11-04T12:00:02.998944
MEAN_MOTION    = 15.61103773
ECCENTRICITY   = .0001504
INCLINATION    = 53.1587
RA_OF_ASC_NODE = 327.6859
ARG_OF_PERICENTER = 68.8973
MEAN_ANOMALY   = 25.3862

EPHEMERIS_TYPE = 0
CLASSIFICATION_TYPE = U
NORAD_CAT_ID   = 66031
ELEMENT_SET_NO = 999
REV_AT_EPOCH   = 339
BSTAR          = -.25787E-1
MEAN_MOTION_DOT = -.1952231E-1
MEAN_MOTION_DDOT = 0

CCSDS_OMM_VERS = 2.0
CREATION_DATE  = 
ORIGINATOR     = 

OBJECT_NAME    = STARLINK-35311
OBJECT_ID      = 2025-232AD
CENTER_NAME    = EARTH
REF_FRAME      = TEME
TIME_SYSTEM    = UTC
MEAN_ELEMENT_THEORY = SGP/SGP4

EPOCH          = 2025-11-04T12:00:02.998944
MEAN_MOTION    = 15.61107914
ECCENTRICITY   = .0001494
INCLINATION    = 53.1589
RA_OF_ASC_NODE = 327.6811
ARG_OF_PERICENTER = 65.9996
MEAN_ANOMALY   = 30.2026

EPHEMERIS_TYPE = 0
CLASSIFICATION_TYPE = U
NORAD_CAT_ID   = 66032
ELEMENT_SET_NO = 999
REV_AT_EPOCH   = 339
BSTAR          = -.25921E-1
MEAN_MOTION_DOT = -.1961386E-1
MEAN_MOTION_DDOT = 0

CCSDS_OMM_VERS = 2.0
CREATION_DATE  = 
ORIGINATOR     = 

OBJECT_NAME    = QIANFAN-91
OBJECT_ID      = 2025-233A
CENTER_NAME    = EARTH
REF_FRAME      = TEME
TIME_SYSTEM    = UTC
MEAN_ELEMENT_THEORY = SGP/SGP4

EPOCH          = 2025-11-04T10:42:19.126080
MEAN_MOTION    = 14.25915411
ECCENTRICITY   = .0016427
INCLINATION    = 88.9950
RA_OF_ASC_NODE = 66.4395
ARG_OF_PERICENTER = 152.3479
MEAN_ANOMALY   = 207.8592

EPHEMERIS_TYPE = 0
CLASSIFICATION_TYPE = U
NORAD_CAT_ID   = 66033
ELEMENT_SET_NO = 999
REV_AT_EPOCH   = 258
BSTAR          = .27476E-3
MEAN_MOTION_DOT = .67E-5
MEAN_MOTION_DDOT = 0

CCSDS_OMM_VERS = 2.0
CREATION_DATE  = 
ORIGINATOR     = 

OBJECT_NAME    = QIANFAN-92
OBJECT_ID      = 2025-233B
CENTER_NAME    = EARTH
REF_FRAME      = TEME
TIME_SYSTEM    = UTC
MEAN_ELEMENT_THEORY = SGP/SGP4

EPOCH          = 2025-11-04T10:41:20.469984
MEAN_MOTION    = 14.25997176
ECCENTRICITY   = .0016013
INCLINATION    = 88.9949
RA_OF_ASC_NODE = 66.4391
ARG_OF_PERICENTER = 154.8414
MEAN_ANOMALY   = 205.3563

EPHEMERIS_TYPE = 0
CLASSIFICATION_TYPE = U
NORAD_CAT_ID   = 66034
ELEMENT_SET_NO = 999
REV_AT_EPOCH   = 258
BSTAR          = .2698E-3
MEAN_MOTION_DOT = .659E-5
MEAN_MOTION_DDOT = 0

CCSDS_OMM_VERS = 2.0
CREATION_DATE  = 
ORIGINATOR     = 

OBJECT_NAME    = QIANFAN-93
OBJECT_ID      = 2025-233C
CENTER_NAME    = EARTH
REF_FRAME      = TEME
TIME_SYSTEM    = UTC
MEAN_ELEMENT_THEORY = SGP/SGP4

EPOCH          = 2025-11-04T10:39:46.771776
MEAN_MOTION    = 14.26080816
ECCENTRICITY   = .0015332
INCLINATION    = 88.9950
RA_OF_ASC_NODE = 66.4391
ARG_OF_PERICENTER = 154.1760
MEAN_ANOMALY   = 206.0202

EPHEMERIS_TYPE = 0
CLASSIFICATION_TYPE = U
NORAD_CAT_ID   = 66035
ELEMENT_SET_NO = 999
REV_AT_EPOCH   = 258
BSTAR          = .27584E-3
MEAN_MOTION_DOT = .674E-5
MEAN_MOTION_DDOT = 0

CCSDS_OMM_VERS = 2.0
CREATION_DATE  = 
ORIGINATOR     = 

OBJECT_NAME    = QIANFAN-94
OBJECT_ID      = 2025-233D
CENTER_NAME    = EARTH
REF_FRAME      = TEME
TIME_SYSTEM    = UTC
MEAN_ELEMENT_THEORY = SGP/SGP4

EPOCH          = 2025-11-04T10:39:23.954400
MEAN_MOTION    = 14.26106001
ECCENTRICITY   = .0015406
INCLINATION    = 88.9951
RA_OF_ASC_NODE = 66.4392
ARG_OF_PERICENTER = 153.8342
MEAN_ANOMALY   = 206.3633

EPHEMERIS_TYPE = 0
CLASSIFICATION_TYPE = U
NORAD_CAT_ID   = 66036
ELEMENT_SET_NO = 999
REV_AT_EPOCH   = 258
BSTAR          = .27642E-3
MEAN_MOTION_DOT = .676E-5
MEAN_MOTION_DDOT = 0

CCSDS_OMM_VERS = 2.0
CREATION_DATE  = 
ORIGINATOR     = 

OBJECT_NAME    = QIANFAN-95
OBJECT_ID      = 2025-233E
CENTER_NAME    = EARTH
REF_FRAME      = TEME
TIME_SYSTEM    = UTC
MEAN_ELEMENT_THEORY = SGP/SGP4

EPOCH          = 2025-11-04T10:38:56.475744
MEAN_MOTION    = 14.26151169
ECCENTRICITY   = .0015361
INCLINATION    = 88.9950
RA_OF_ASC_NODE = 66.4391
ARG_OF_PERICENTER = 154.2248
MEAN_ANOMALY   = 205.9714

EPHEMERIS_TYPE = 0
CLASSIFICATION_TYPE = U
NORAD_CAT_ID   = 66037
ELEMENT_SET_NO = 999
REV_AT_EPOCH   = 258
BSTAR          = .27433E-3
MEAN_MOTION_DOT = .671E-5
MEAN_MOTION_DDOT = 0

