STARLINK-34812          
1 66026U 25232X   25308.50003471 -.01909236  00000+0 -36294-1 0  9998
2 66026  53.1590 327.9186 0001421  61.7029 277.5281 15.50757953  3343
STARLINK-35341          
1 66027U 25232Y   25308.50003471 -.01945130  00000+0 -25689-1 0  9998
2 66027  53.1586 327.7007 0001352  59.1089  27.5130 15.61097583  3398
STARLINK-35339          
1 66028U 25232Z   25308.50003471 -.01950486  00000+0 -25765-1 0  9994
2 66028  53.1590 327.6974 0001344  61.6665  26.8682 15.61102057  3336
STARLINK-35399          
1 66029U 25232AA  25308.50003471 -.01961490  00000+0 -25925-1 0  9990
2 66029  53.1593 327.6941 0001378  66.3371  24.1167 15.61106438  3333
STARLINK-35431          
1 66030U 25232AB  25308.50003471 -.01958124  00000+0 -25874-1 0  9995
2 66030  53.1591 327.6889 0001547  66.6810  25.6874 15.61105516  3330
STARLINK-35326          
1 66031U 25232AC  25308.50003471 -.01952231  00000+0 -25787-1 0  9992
2 66031  53.1587 327.6859 0001504  68.8973  25.3862 15.61103773  3393
STARLINK-35311          
1 66032U 25232AD  25308.50003471 -.01961386  00000+0 -25921-1 0  9994
2 66032  53.1589 327.6811 0001494  65.9996  30.2026 15.61107914  3393
QIANFAN-91              
1 66033U 25233A   25308.44605470  .00000670  00000+0  27476-3 0  9992
2 66033  88.9950  66.4395 0016427 152.3479 207.8592 14.25915411  2584
QIANFAN-92              
1 66034U 25233B   25308.44537581  .00000659  00000+0  26980-3 0  9996
2 66034  88.9949  66.4391 0016013 154.8414 205.3563 14.25997176  2585
QIANFAN-93              
1 66035U 25233C   25308.44429134  .00000674  00000+0  27584-3 0  9999
2 66035  88.9950  66.4391 0015332 154.1760 206.0202 14.26080816  2581
QIANFAN-94              
1 66036U 25233D   25308.44402725  .00000676  00000+0  27642-3 0  9994
2 66036  88.9951  66.4392 0015406 153.8342 206.3633 14.26106001  2584
QIANFAN-95              
1 66037U 25233E   25308.44370921  .00000671  00000+0  27433-3 0  9990
2 66037  88.9950  66.4391 0015361 154.2248 205.9714 14.26151169  2583
